CCSDS_OMM_VERS = 2.0
CREATION_DATE  = 
ORIGINATOR     = 

OBJECT_NAME    = INTERCOSMOS 25
OBJECT_ID      = 1991-086A
CENTER_NAME    = EARTH
REF_FRAME      = TEME
TIME_SYSTEM    = UTC
MEAN_ELEMENT_THEORY = SGP/SGP4

EPOCH          = 2025-12-22T11:02:33.422784
MEAN_MOTION    = 12.11765115
ECCENTRICITY   = .1486363
INCLINATION    = 82.6074
RA_OF_ASC_NODE = 356.6954
ARG_OF_PERICENTER = 283.4379
MEAN_ANOMALY   = 60.5730

EPHEMERIS_TYPE = 0
CLASSIFICATION_TYPE = U
NORAD_CAT_ID   = 21819
ELEMENT_SET_NO = 999
REV_AT_EPOCH   = 48733
BSTAR          = .43268277E-3
MEAN_MOTION_DOT = .2173E-4
MEAN_MOTION_DDOT = 0

CCSDS_OMM_VERS = 2.0
CREATION_DATE  = 
ORIGINATOR     = 

OBJECT_NAME    = SL-8 R/B
OBJECT_ID      = 1992-008B
CENTER_NAME    = EARTH
REF_FRAME      = TEME
TIME_SYSTEM    = UTC
MEAN_ELEMENT_THEORY = SGP/SGP4

EPOCH          = 2025-12-22T10:26:11.474592
MEAN_MOTION    = 13.75961104
ECCENTRICITY   = .00345728
INCLINATION    = 82.9270
RA_OF_ASC_NODE = 325.2347
ARG_OF_PERICENTER = 352.9145
MEAN_ANOMALY   = 124.4918

EPHEMERIS_TYPE = 0
CLASSIFICATION_TYPE = U
NORAD_CAT_ID   = 21876
ELEMENT_SET_NO = 999
REV_AT_EPOCH   = 69879
BSTAR          = .10445396E-3
MEAN_MOTION_DOT = .117E-5
MEAN_MOTION_DDOT = 0

CCSDS_OMM_VERS = 2.0
CREATION_DATE  = 
ORIGINATOR     = 

OBJECT_NAME    = SL-8 R/B
OBJECT_ID      = 1992-020B
CENTER_NAME    = EARTH
REF_FRAME      = TEME
TIME_SYSTEM    = UTC
MEAN_ELEMENT_THEORY = SGP/SGP4

EPOCH          = 2025-12-22T13:57:34.218720
MEAN_MOTION    = 13.75529557
ECCENTRICITY   = .00295315
INCLINATION    = 82.9296
RA_OF_ASC_NODE = 211.0092
ARG_OF_PERICENTER = 150.8980
MEAN_ANOMALY   = 237.8125

EPHEMERIS_TYPE = 0
CLASSIFICATION_TYPE = U
NORAD_CAT_ID   = 21938
ELEMENT_SET_NO = 999
REV_AT_EPOCH   = 69053
BSTAR          = .12317995E-3
MEAN_MOTION_DOT = .134E-5
MEAN_MOTION_DDOT = 0

CCSDS_OMM_VERS = 2.0
CREATION_DATE  = 
ORIGINATOR     = 

OBJECT_NAME    = USA 81
OBJECT_ID      = 1992-023A
CENTER_NAME    = EARTH
REF_FRAME      = TEME
TIME_SYSTEM    = UTC
MEAN_ELEMENT_THEORY = SGP/SGP4

EPOCH          = 2025-12-22T11:09:43.229952
MEAN_MOTION    = 14.32330278
ECCENTRICITY   = .00011008
INCLINATION    = 85.0079
RA_OF_ASC_NODE = 175.9670
ARG_OF_PERICENTER = 81.6074
MEAN_ANOMALY   = 278.5244

EPHEMERIS_TYPE = 0
CLASSIFICATION_TYPE = U
NORAD_CAT_ID   = 21949
ELEMENT_SET_NO = 999
REV_AT_EPOCH   = 8373
BSTAR          = .58171553E-4
MEAN_MOTION_DOT = .177E-5
MEAN_MOTION_DDOT = 0

CCSDS_OMM_VERS = 2.0
CREATION_DATE  = 
ORIGINATOR     = 

OBJECT_NAME    = COSMOS 2219
OBJECT_ID      = 1992-076A
CENTER_NAME    = EARTH
REF_FRAME      = TEME
TIME_SYSTEM    = UTC
MEAN_ELEMENT_THEORY = SGP/SGP4

EPOCH          = 2025-12-22T04:53:19.199616
MEAN_MOTION    = 14.14065673
ECCENTRICITY   = .00192786
INCLINATION    = 71.0575
RA_OF_ASC_NODE = 180.0485
ARG_OF_PERICENTER = 314.0037
MEAN_ANOMALY   = 45.9496

EPHEMERIS_TYPE = 0
CLASSIFICATION_TYPE = U
NORAD_CAT_ID   = 22219
ELEMENT_SET_NO = 999
REV_AT_EPOCH   = 70742
BSTAR          = .15937582E-3
MEAN_MOTION_DOT = .257E-5
MEAN_MOTION_DDOT = 0

CCSDS_OMM_VERS = 2.0
CREATION_DATE  = 
ORIGINATOR     = 

OBJECT_NAME    = SL-16 R/B
OBJECT_ID      = 1992-076B
CENTER_NAME    = EARTH
REF_FRAME      = TEME
TIME_SYSTEM    = UTC
MEAN_ELEMENT_THEORY = SGP/SGP4

EPOCH          = 2025-12-22T11:17:53.583648
MEAN_MOTION    = 14.16844519
ECCENTRICITY   = .00142968
INCLINATION    = 71.0008
RA_OF_ASC_NODE = 351.0332
ARG_OF_PERICENTER = 221.0022
MEAN_ANOMALY   = 254.6556

EPHEMERIS_TYPE = 0
CLASSIFICATION_TYPE = U
NORAD_CAT_ID   = 22220
ELEMENT_SET_NO = 999
REV_AT_EPOCH   = 71089
BSTAR          = .12276436E-3
MEAN_MOTION_DOT = .198E-5
MEAN_MOTION_DDOT = 0

CCSDS_OMM_VERS = 2.0
CREATION_DATE  = 
ORIGINATOR     = 

OBJECT_NAME    = COSMOS 2221
OBJECT_ID      = 1992-080A
CENTER_NAME    = EARTH
REF_FRAME      = TEME
TIME_SYSTEM    = UTC
MEAN_ELEMENT_THEORY = SGP/SGP4

EPOCH          = 2025-12-22T10:49:23.074464
MEAN_MOTION    = 14.95796314
ECCENTRICITY   = .00162829
INCLINATION    = 82.5038
RA_OF_ASC_NODE = 353.0296
ARG_OF_PERICENTER = 91.9247
MEAN_ANOMALY   = 268.3840

EPHEMERIS_TYPE = 0
CLASSIFICATION_TYPE = U
NORAD_CAT_ID   = 22236
ELEMENT_SET_NO = 999
REV_AT_EPOCH   = 76924
BSTAR          = .16476743E-3
MEAN_MOTION_DOT = .1868E-4
MEAN_MOTION_DDOT = 0

CCSDS_OMM_VERS = 2.0
CREATION_DATE  = 
ORIGINATOR     = 

OBJECT_NAME    = SL-16 R/B
OBJECT_ID      = 1992-093B
CENTER_NAME    = EARTH
REF_FRAME      = TEME
TIME_SYSTEM    = UTC
MEAN_ELEMENT_THEORY = SGP/SGP4

EPOCH          = 2025-12-22T13:36:58.904352
MEAN_MOTION    = 14.15435146
ECCENTRICITY   = .00024419
INCLINATION    = 71.0206
RA_OF_ASC_NODE = 166.1656
ARG_OF_PERICENTER = 39.2763
MEAN_ANOMALY   = 320.8536

EPHEMERIS_TYPE = 0
CLASSIFICATION_TYPE = U
NORAD_CAT_ID   = 22285
ELEMENT_SET_NO = 999
REV_AT_EPOCH   = 70224
BSTAR          = .37176716E-4
MEAN_MOTION_DOT = .25E-6
MEAN_MOTION_DDOT = 0

CCSDS_OMM_VERS = 2.0
CREATION_DATE  = 
ORIGINATOR     = 

OBJECT_NAME    = COSMOS 2228
OBJECT_ID      = 1992-094A
CENTER_NAME    = EARTH
REF_FRAME      = TEME
TIME_SYSTEM    = UTC
MEAN_ELEMENT_THEORY = SGP/SGP4

EPOCH          = 2025-12-22T12:25:31.712160
MEAN_MOTION    = 14.96771562
ECCENTRICITY   = .00172566
INCLINATION    = 82.5184
RA_OF_ASC_NODE = 311.1782
ARG_OF_PERICENTER = 196.4826
MEAN_ANOMALY   = 163.5838

EPHEMERIS_TYPE = 0
CLASSIFICATION_TYPE = U
NORAD_CAT_ID   = 22286
ELEMENT_SET_NO = 999
REV_AT_EPOCH   = 76451
BSTAR          = .17187145E-3
MEAN_MOTION_DOT = .1997E-4
MEAN_MOTION_DDOT = 0

CCSDS_OMM_VERS = 2.0
CREATION_DATE  = 
ORIGINATOR     = 

OBJECT_NAME    = SL-16 R/B
OBJECT_ID      = 1993-016B
CENTER_NAME    = EARTH
REF_FRAME      = TEME
TIME_SYSTEM    = UTC
MEAN_ELEMENT_THEORY = SGP/SGP4

EPOCH          = 2025-12-22T11:00:34.578720
MEAN_MOTION    = 14.15290877
ECCENTRICITY   = .00080309
INCLINATION    = 71.0081
RA_OF_ASC_NODE = 17.3909
ARG_OF_PERICENTER = 78.4281
MEAN_ANOMALY   = 281.7743

EPHEMERIS_TYPE = 0
CLASSIFICATION_TYPE = U
NORAD_CAT_ID   = 22566
ELEMENT_SET_NO = 999
REV_AT_EPOCH   = 69124
BSTAR          = .19592979E-3
MEAN_MOTION_DOT = .334E-5
MEAN_MOTION_DDOT = 0

CCSDS_OMM_VERS = 2.0
CREATION_DATE  = 
ORIGINATOR     = 

OBJECT_NAME    = COSMOS 2242
OBJECT_ID      = 1993-024A
CENTER_NAME    = EARTH
REF_FRAME      = TEME
TIME_SYSTEM    = UTC
MEAN_ELEMENT_THEORY = SGP/SGP4

EPOCH          = 2025-12-22T09:36:35.017056
MEAN_MOTION    = 14.96143779
ECCENTRICITY   = .00156186
INCLINATION    = 82.5187
RA_OF_ASC_NODE = 340.6103
ARG_OF_PERICENTER = 199.5609
MEAN_ANOMALY   = 160.5016

EPHEMERIS_TYPE = 0
CLASSIFICATION_TYPE = U
NORAD_CAT_ID   = 22626
ELEMENT_SET_NO = 999
REV_AT_EPOCH   = 76883
BSTAR          = .16729605E-3
MEAN_MOTION_DOT = .1913E-4
MEAN_MOTION_DDOT = 0

CCSDS_OMM_VERS = 2.0
CREATION_DATE  = 
ORIGINATOR     = 

OBJECT_NAME    = SL-16 R/B
OBJECT_ID      = 1993-059B
CENTER_NAME    = EARTH
REF_FRAME      = TEME
TIME_SYSTEM    = UTC
MEAN_ELEMENT_THEORY = SGP/SGP4

EPOCH          = 2025-12-22T13:01:57.473184
MEAN_MOTION    = 14.17214268
ECCENTRICITY   = .00184514
INCLINATION    = 70.9879
RA_OF_ASC_NODE = 173.8134
ARG_OF_PERICENTER = 321.8141
MEAN_ANOMALY   = 38.1674

EPHEMERIS_TYPE = 0
CLASSIFICATION_TYPE = U
NORAD_CAT_ID   = 22803
ELEMENT_SET_NO = 999
REV_AT_EPOCH   = 66860
BSTAR          = .13288866E-3
MEAN_MOTION_DOT = .221E-5
MEAN_MOTION_DDOT = 0

CCSDS_OMM_VERS = 2.0
CREATION_DATE  = 
ORIGINATOR     = 

OBJECT_NAME    = ARIANE 40 R/B
OBJECT_ID      = 1993-061H
CENTER_NAME    = EARTH
REF_FRAME      = TEME
TIME_SYSTEM    = UTC
MEAN_ELEMENT_THEORY = SGP/SGP4

EPOCH          = 2025-12-22T14:30:22.811616
MEAN_MOTION    = 14.32807588
ECCENTRICITY   = .00114124
INCLINATION    = 98.5063
RA_OF_ASC_NODE = 61.9544
ARG_OF_PERICENTER = 147.9742
MEAN_ANOMALY   = 212.2137

EPHEMERIS_TYPE = 0
CLASSIFICATION_TYPE = U
NORAD_CAT_ID   = 22830
ELEMENT_SET_NO = 999
REV_AT_EPOCH   = 68306
BSTAR          = .97642399E-4
MEAN_MOTION_DOT = .223E-5
MEAN_MOTION_DDOT = 0

CCSDS_OMM_VERS = 2.0
CREATION_DATE  = 
ORIGINATOR     = 

OBJECT_NAME    = COSMOS 2278
OBJECT_ID      = 1994-023A
CENTER_NAME    = EARTH
REF_FRAME      = TEME
TIME_SYSTEM    = UTC
MEAN_ELEMENT_THEORY = SGP/SGP4

EPOCH          = 2025-12-22T08:48:02.512800
MEAN_MOTION    = 14.14348172
ECCENTRICITY   = .00078873
INCLINATION    = 71.0534
RA_OF_ASC_NODE = 336.8691
ARG_OF_PERICENTER = 162.5774
MEAN_ANOMALY   = 197.5620

EPHEMERIS_TYPE = 0
CLASSIFICATION_TYPE = U
NORAD_CAT_ID   = 23087
ELEMENT_SET_NO = 999
REV_AT_EPOCH   = 63387
BSTAR          = -.1300335E-4
MEAN_MOTION_DOT = -.72E-6
MEAN_MOTION_DDOT = 0

CCSDS_OMM_VERS = 2.0
CREATION_DATE  = 
ORIGINATOR     = 

OBJECT_NAME    = SL-16 R/B
OBJECT_ID      = 1994-023B
CENTER_NAME    = EARTH
REF_FRAME      = TEME
TIME_SYSTEM    = UTC
MEAN_ELEMENT_THEORY = SGP/SGP4

EPOCH          = 2025-12-22T02:16:39.204480
MEAN_MOTION    = 14.15000892
ECCENTRICITY   = .00019143
INCLINATION    = 70.9986
RA_OF_ASC_NODE = 233.8403
ARG_OF_PERICENTER = 6.5850
MEAN_ANOMALY   = 353.5297

EPHEMERIS_TYPE = 0
CLASSIFICATION_TYPE = U
NORAD_CAT_ID   = 23088
ELEMENT_SET_NO = 999
REV_AT_EPOCH   = 63511
BSTAR          = -.96604444E-4
MEAN_MOTION_DOT = -.235E-5
MEAN_MOTION_DDOT = 0

